TDRS 3                  
1 19548U 88091B   17291.20826181 -.00000315  00000-0  00000+0 0  9990
2 19548  14.4481   6.7030 0035889 306.2096  86.5737  1.00279403 93640
HST                     
1 20580U 90037B   17290.39260990  .00000738  00000-0  34512-4 0  9998
2 20580  28.4697 279.9519 0002895  51.9667  66.4827 15.08889044308767
TDRS 5                  
1 21639U 91054B   17290.69473001  .00000072  00000-0  00000-0 0  9998
2 21639  14.4486  20.1180 0019380 339.8006 108.9039  1.00276200 95981
TDRS 6                  
1 22314U 93003B   17291.21152657 -.00000306  00000-0  00000+0 0  9995
2 22314  13.9890  23.0690 0005833 275.4394 118.5612  1.00279633 90652
TDRS 7                  
1 23613U 95035B   17291.03123517 -.00000215  00000-0  00000+0 0  9997
2 23613  15.0153  13.8116 0025567 357.4483 111.3584  1.00277736 81422
ISS (ZARYA)             
1 25544U 98067A   17291.36369213  .00001740  00000-0  33463-4 0  9998
2 25544  51.6409 144.2789 0005138  34.7318 313.9937 15.54202609 80901
LANDSAT 7               
1 25682U 99020A   17291.18162966  .00000018  00000-0  14012-4 0  9993
2 25682  98.1990   0.5597 0000936  84.9518 275.1791 14.57110547984503
TERRA                   
1 25994U 99068A   17291.19210865  .00000107  00000-0  33801-4 0  9990
2 25994  98.1989   4.4206 0001255  85.6953 274.4385 14.57123890948587
TDRS 8                  
1 26388U 00034A   17290.83075282 -.00000244  00000-0  00000+0 0  9998
2 26388   7.6937  54.7821 0008459 213.8521 146.1024  1.00267636 63442
EO-1                    
1 26619U 00075A   17291.04274066 -.00000010  00000-0  65464-5 0  9997
2 26619  97.8274 314.3357 0011079  76.3735 283.8678 14.64408516901515
TIMED                   
1 26998U 01055B   17290.51794952  .00000181  00000-0  23844-4 0  9991
2 26998  74.0718  71.6991 0000728 334.9515  25.1630 14.87947328859623
TDRS 9                  
1 27389U 02011A   17291.22841146 -.00000115  00000-0  00000+0 0  9998
2 27389   5.4969  77.5527 0018483 233.1934 146.4754  1.00271886 58711
AQUA                    
1 27424U 02022A   17290.94969209  .00000162  00000-0  45921-4 0  9996
2 27424  98.2141 230.4586 0002733  86.3788 342.6881 14.57115100822109
TDRS 10                 
1 27566U 02055A   17290.57195952  .00000060  00000-0  00000+0 0  9995
2 27566   5.2420  57.8411 0009271 208.5863 151.4131  1.00267872 54499
SORCE                   
1 27651U 03004A   17290.60338345  .00000244  00000-0  39867-4 0  9996
2 27651  39.9968 359.4738 0023398  13.7502 346.3920 14.88748523799001
AURA                    
1 28376U 04026A   17291.21681753  .00000169  00000-0  47590-4 0  9996
2 28376  98.2141 232.8860 0001947  74.4053 285.7360 14.57112352705235
SWIFT                   
1 28485U 04047A   17290.50836595  .00001234  00000-0  55448-4 0  9992
2 28485  20.5576 359.5162 0011281 345.0746  14.9354 15.03891911706644
THEMIS A                
1 30580U 07004A   17290.93595405 -.00000160  00000-0  00000+0 0  9993
2 30580   7.7137 179.1920 8339646 156.1511 294.5797  0.87743382 38142
THEMIS D                
1 30797U 07004D   17284.45644263 -.00000393  00000-0  00000-0 0  9999
2 30797   4.7986 138.8790 8126827 211.2458  53.0440  1.06412578 14336
THEMIS E                
1 30798U 07004E   17288.35583719 -.00000411  00000-0  00000+0 0  9991
2 30798   5.1473 166.5732 8316334 179.8189 181.6608  0.87683714 38612
AIM                     
1 31304U 07015A   17290.57469033  .00001391  00000-0  84453-4 0  9992
2 31304  98.0026 115.3734 0006500  81.9905 278.2062 15.12318819573433
FGRST (GLAST)           
1 33053U 08029A   17290.32272249  .00000681  00000-0  22508-4 0  9999
2 33053  25.5825 252.5132 0012129 254.8015 105.1179 15.10978640515818
WISE                    
1 36119U 09071A   17291.18467015  .00001169  00000-0  44729-4 0  9996
2 36119  97.4415 318.9686 0001513 202.1532 157.9642 15.28595865435064
TDRS 11                 
1 39070U 13004A   17290.31513096  .00000062  00000-0  00000-0 0  9992
2 39070   5.2365 328.5659 0010033 285.7293  73.9777  1.00269859 14963
TDRS 12                 
1 39504U 14004A   17289.97606142 -.00000303  00000-0  00000-0 0  9999
2 39504   5.8479 335.9664 0003986 294.1387  65.6807  1.00263383 12542
GPM-CORE                
1 39574U 14009C   17291.04429545  .00005172  00000-0  79044-4 0  9998
2 39574  65.0092 222.0689 0010857 284.4968  75.4973 15.55610366206633
MMS 1                   
1 40482U 15011A   17291.01041667 -.00000265  00000-0  00000+0 0  9994
2 40482  22.1162 308.9046 9011925 159.7091 101.3168  0.35514944  8095
MMS 2                   
1 40483U 15011B   17291.01041667 -.00000265  00000-0  00000+0 0  9995
2 40483  22.1152 308.9018 9010279 159.7028 101.3423  0.35514888  8085
MMS 3                   
1 40484U 15011C   17291.01041667 -.00000265  00000-0  00000+0 0  9996
2 40484  22.1223 308.9264 9010654 159.6865 101.3229  0.35514880  8089
MMS 4                   
1 40485U 15011D   17291.01041667 -.00000265  00000-0  00000+0 0  9997
2 40485  22.1150 308.9070 9010029 159.7169 101.2975  0.35514846  8076
